     2              NAVIGATION DATA                         RINEX VERSION / TYPE
CCRINEXN V1.6.0 UX  CDDIS               12-APR-16 15:33     PGM / RUN BY / DATE 
IGS BROADCAST EPHEMERIS FILE                                COMMENT             
    0.1583D-07  0.1490D-07 -0.1192D-06 -0.1192D-06          ION ALPHA           
    0.1065D+06  0.6554D+05 -0.1966D+06 -0.1966D+06          ION BETA            
    0.186264514923D-08 0.000000000000D+00   233472     1892 DELTA-UTC: A0,A1,T,W
    17                                                      LEAP SECONDS        
                                                            END OF HEADER       
 9 16  4 11  2  0  0.0 0.107497908175D-03 0.750333128963D-11 0.000000000000D+00
    0.570000000000D+02 0.676875000000D+02 0.430982237854D-08-0.293898240414D+01
    0.350736081600D-05 0.650903093629D-03 0.114180147648D-04 0.515360957527D+04
    0.936000000000D+05 0.577419996262D-07 0.674757481809D+00-0.335276126862D-07
    0.955607714931D+00 0.158656250000D+03 0.208680080157D+01-0.787139930395D-08
   -0.204651381694D-09 0.000000000000D+00 0.189200000000D+04 0.000000000000D+00
    0.200000000000D+01 0.000000000000D+00 0.139698386192D-08 0.570000000000D+02
    0.927300000000D+05 0.400000000000D+01 0.000000000000D+00 0.000000000000D+00
10 16  4 11  2  0  0.0 0.507850199938D-05-0.966338120634D-11 0.000000000000D+00
    0.450000000000D+02-0.267500000000D+02 0.476198407004D-08-0.880137569148D+00
   -0.155158340931D-05 0.137676612940D-02 0.713765621185D-05 0.515367607498D+04
    0.936000000000D+05 0.707805156708D-07-0.368771153256D+00-0.279396772385D-07
    0.959786389744D+00 0.243875000000D+03-0.276714796901D+01-0.814641075928D-08
   -0.511092717635D-09 0.000000000000D+00 0.189200000000D+04 0.000000000000D+00
    0.200000000000D+01 0.000000000000D+00 0.232830643654D-08 0.450000000000D+02
    0.930300000000D+05 0.400000000000D+01 0.000000000000D+00 0.000000000000D+00
11 16  4 11  2  0  0.0-0.640284270048D-03-0.147792889038D-11 0.000000000000D+00
    0.840000000000D+02 0.164687500000D+02 0.633954978198D-08 0.808877820094D+00
    0.858679413795D-06 0.162683930248D-01 0.929087400436D-05 0.515365717888D+04
    0.936000000000D+05-0.298023223877D-06-0.178010285993D+01-0.875443220139D-07
    0.895870543576D+00 0.172093750000D+03 0.151344520262D+01-0.915109546557D-08
    0.371086885830D-09 0.000000000000D+00 0.189200000000D+04 0.000000000000D+00
    0.200000000000D+01 0.000000000000D+00-0.121071934700D-07 0.840000000000D+02
    0.923400000000D+05 0.400000000000D+01 0.000000000000D+00 0.000000000000D+00
12 16  4 11  2  0  0.0 0.375851057470D-03 0.136424205266D-11 0.000000000000D+00
    0.380000000000D+02-0.833125000000D+02 0.421874715632D-08 0.201115011122D+00
   -0.438466668129D-05 0.607229361776D-02 0.449456274509D-05 0.515375163650D+04
    0.936000000000D+05 0.111758708954D-07 0.282831398855D+01 0.121071934700D-06
    0.990515848584D+00 0.313593750000D+03 0.708948165325D+00-0.820641325862D-08
   -0.222509268404D-09 0.100000000000D+01 0.189200000000D+04 0.000000000000D+00
    0.200000000000D+01 0.000000000000D+00-0.125728547573D-07 0.380000000000D+02
    0.893520000000D+05 0.400000000000D+01 0.000000000000D+00 0.000000000000D+00
13 16  4 11  2  0  0.0-0.100326724350D-04-0.272848410532D-11 0.000000000000D+00
    0.580000000000D+02 0.872812500000D+02 0.386587531494D-08 0.162874367786D+01
    0.452250242233D-05 0.455847650301D-02 0.116396695375D-04 0.515368867683D+04
    0.936000000000D+05 0.162050127983D-06 0.794757076480D+00-0.316649675369D-07
    0.971960565785D+00 0.160406250000D+03 0.199305142271D+01-0.769710632966D-08
   -0.603596570791D-10 0.100000000000D+01 0.189200000000D+04 0.000000000000D+00
    0.200000000000D+01 0.000000000000D+00-0.111758708954D-07 0.580000000000D+02
    0.864180000000D+05 0.400000000000D+01 0.000000000000D+00 0.000000000000D+00
14 16  4 11  2  0  0.0-0.766105949879D-05-0.216004991671D-11 0.000000000000D+00
    0.230000000000D+02 0.634062500000D+02 0.395623622169D-08-0.284648717763D+01
    0.332482159138D-05 0.844600063283D-02 0.118780881167D-04 0.515400432587D+04
    0.936000000000D+05-0.391155481338D-07 0.758011305596D+00-0.335276126862D-07
    0.964477606684D+00 0.151031250000D+03-0.196700321687D+01-0.756531512574D-08
   -0.660741808263D-10 0.000000000000D+00 0.189200000000D+04 0.000000000000D+00
    0.200000000000D+01 0.000000000000D+00-0.931322574616D-08 0.230000000000D+02
    0.864000000000D+05 0.400000000000D+01 0.000000000000D+00 0.000000000000D+00
15 16  4 11  2  0  0.0-0.305898487568D-03-0.170530256582D-11 0.000000000000D+00
    0.600000000000D+02 0.547812500000D+02 0.487341728311D-08 0.266961646708D+01
    0.280141830444D-05 0.809054030106D-02 0.123307108879D-04 0.515357546425D+04
    0.936000000000D+05-0.577419996262D-07 0.623340411259D+00-0.141561031342D-06
    0.931380584631D+00 0.125156250000D+03 0.482082849691D+00-0.808569394446D-08
   -0.258225041824D-09 0.100000000000D+01 0.189200000000D+04 0.000000000000D+00
    0.200000000000D+01 0.000000000000D+00-0.107102096081D-07 0.600000000000D+02
    0.864180000000D+05 0.400000000000D+01 0.000000000000D+00 0.000000000000D+00
16 16  4 11  2  0  0.0-0.254781916738D-04 0.284217094304D-11 0.000000000000D+00
    0.610000000000D+02-0.895937500000D+02 0.402873924173D-08-0.184293676407D+01
   -0.496767461300D-05 0.874612480402D-02 0.476092100143D-05 0.515374088097D+04
    0.936000000000D+05 0.124797224999D-06 0.284707210494D+01-0.122934579849D-06
    0.991039890709D+00 0.300312500000D+03 0.357492441075D+00-0.800997650482D-08
   -0.557166065346D-10 0.000000000000D+00 0.189200000000D+04 0.000000000000D+00
    0.200000000000D+01 0.000000000000D+00-0.107102096081D-07 0.610000000000D+02
    0.864000000000D+05 0.400000000000D+01 0.000000000000D+00 0.000000000000D+00
17 16  4 11  2  0  0.0-0.203003175557D-03-0.341060513165D-12 0.000000000000D+00
    0.600000000000D+02-0.628437500000D+02 0.399659504565D-08-0.276321413987D+01
   -0.315159559250D-05 0.109648702201D-01 0.122245401144D-04 0.515367890358D+04
    0.936000000000D+05 0.219792127609D-06-0.241452777368D+01-0.521540641785D-07
    0.975969597691D+00 0.146687500000D+03-0.193121334885D+01-0.760103089916D-08
    0.230723896291D-09 0.100000000000D+01 0.189200000000D+04 0.000000000000D+00
    0.200000000000D+01 0.000000000000D+00-0.107102096081D-07 0.600000000000D+02
    0.864180000000D+05 0.400000000000D+01 0.000000000000D+00 0.000000000000D+00
18 16  4 11  2  0  0.0 0.503333751112D-03 0.420641299570D-11 0.000000000000D+00
    0.200000000000D+02-0.223125000000D+02 0.570238034570D-08-0.120320626484D+01
   -0.101886689663D-05 0.169938495383D-01 0.650994479656D-05 0.515366491318D+04
    0.936000000000D+05 0.106170773506D-06-0.396061272673D+00 0.437721610069D-06
    0.925245499732D+00 0.235281250000D+03-0.189792334742D+01-0.872286332054D-08
   -0.494663476847D-09 0.100000000000D+01 0.189200000000D+04 0.000000000000D+00
    0.200000000000D+01 0.000000000000D+00-0.121071934700D-07 0.200000000000D+02
    0.868500000000D+05 0.000000000000D+00 0.000000000000D+00 0.000000000000D+00
19 16  4 11  2  0  0.0-0.525598879904D-03-0.113686837722D-12 0.000000000000D+00
    0.620000000000D+02-0.503125000000D+02 0.416374486526D-08 0.373250721059D+00
   -0.247173011303D-05 0.107686264673D-01 0.119730830193D-04 0.515361710930D+04
    0.936000000000D+05-0.447034835815D-07-0.236564036351D+01 0.158324837685D-06
    0.973027169116D+00 0.155812500000D+03 0.738187437293D+00-0.794104506212D-08
    0.151792037033D-09 0.100000000000D+01 0.189200000000D+04 0.000000000000D+00
    0.200000000000D+01 0.000000000000D+00-0.149011611938D-07 0.620000000000D+02
    0.864180000000D+05 0.400000000000D+01 0.000000000000D+00 0.000000000000D+00
20 16  4 11  2  0  0.0 0.405170023441D-03 0.250111042988D-11 0.000000000000D+00
    0.790000000000D+02-0.270625000000D+02 0.562844881813D-08 0.274620705596D+01
   -0.139512121677D-05 0.467730371747D-02 0.620447099209D-05 0.515371008682D+04
    0.936000000000D+05 0.707805156708D-07-0.447941728377D+00-0.186264514923D-08
    0.926465681666D+00 0.239968750000D+03 0.135530779444D+01-0.851035419913D-08
   -0.437161057354D-09 0.100000000000D+01 0.189200000000D+04 0.000000000000D+00
    0.200000000000D+01 0.000000000000D+00-0.838190317154D-08 0.790000000000D+02
    0.864000000000D+05 0.000000000000D+00 0.000000000000D+00 0.000000000000D+00
21 16  4 11  2  0  0.0-0.518576242030D-03-0.147792889038D-11 0.000000000000D+00
    0.250000000000D+02 0.164375000000D+02 0.557987528135D-08-0.334246858586D+00
    0.105239450932D-05 0.233432977693D-01 0.753439962864D-05 0.515362895393D+04
    0.936000000000D+05-0.208616256714D-06-0.143844609891D+01 0.156462192535D-06
    0.935657659703D+00 0.223906250000D+03-0.180400960093D+01-0.896465912832D-08
    0.390016245742D-09 0.000000000000D+00 0.189200000000D+04 0.000000000000D+00
    0.200000000000D+01 0.000000000000D+00-0.102445483208D-07 0.250000000000D+02
    0.864000000000D+05 0.400000000000D+01 0.000000000000D+00 0.000000000000D+00
22 16  4 11  2  0  0.0 0.364970881492D-03-0.727595761418D-11 0.000000000000D+00
    0.910000000000D+02-0.350625000000D+02 0.559237580204D-08-0.299259588234D+01
   -0.189431011677D-05 0.786341133062D-02 0.667199492455D-05 0.515504771805D+04
    0.936000000000D+05 0.115483999252D-06-0.395335287873D+00-0.104308128357D-06
    0.923117040239D+00 0.227656250000D+03-0.199597336019D+01-0.848928218411D-08
   -0.436089593453D-09 0.000000000000D+00 0.189200000000D+04 0.000000000000D+00
    0.280000000000D+01 0.000000000000D+00-0.176951289177D-07 0.910000000000D+02
    0.864000000000D+05 0.400000000000D+01 0.000000000000D+00 0.000000000000D+00
